[{"OBJECT_NAME":"STARLINK-2581","OBJECT_ID":"2021-038BM","EPOCH":"2026-03-09T20:21:32.588640","MEAN_MOTION":15.06396675,"ECCENTRICITY":0.00014731,"INCLINATION":53.054,"RA_OF_ASC_NODE":291.3408,"ARG_OF_PERICENTER":74.8336,"MEAN_ANOMALY":285.2816,"EPHEMERIS_TYPE":0,"CLASSIFICATION_TYPE":"U","NORAD_CAT_ID":48412,"ELEMENT_SET_NO":999,"REV_AT_EPOCH":26803,"BSTAR":5.2922796e-5,"MEAN_MOTION_DOT":5.07e-6,"MEAN_MOTION_DDOT":0},{"OBJECT_NAME":"FENGYUN 1C DEB","OBJECT_ID":"1999-025BQF","EPOCH":"2026-03-08T19:58:36.101856","MEAN_MOTION":15.15826086,"ECCENTRICITY":0.00798835,"INCLINATION":98.9812,"RA_OF_ASC_NODE":89.4872,"ARG_OF_PERICENTER":83.7388,"MEAN_ANOMALY":277.2932,"EPHEMERIS_TYPE":0,"CLASSIFICATION_TYPE":"U","NORAD_CAT_ID":31327,"ELEMENT_SET_NO":999,"REV_AT_EPOCH":1401,"BSTAR":0.0018254058,"MEAN_MOTION_DOT":0.00037915,"MEAN_MOTION_DDOT":0}]
